{"type": "FeatureCollection", "crs": {"type": "name", "properties": {"name": "urn:ogc:def:crs:EPSG::4326"}}, "features": [{"type": "Feature", "properties": {"osm_id": 3198263833, "name": "\u092e\u093e\u0925\u093f\u0932\u094d\u0932\u094b \u091a\u094c\u0930", "place": "hamlet", "class": "still_connected", "priority_rank": 10, "priority_score": 19.0, "buildings_affected": 19, "extra_distance_km": 0.828571, "snapped": true, "snap_distance_m": 55.14, "road_node": 4200}, "geometry": {"type": "Point", "coordinates": [85.3096911, 27.9251624]}}, {"type": "Feature", "properties": {"osm_id": 3488007976, "name": "\u0921\u094b\u0917\u094d\u0932\u093e\u0919", "place": "hamlet", "class": "still_connected", "priority_rank": 47, "priority_score": 0.0, "buildings_affected": 0, "extra_distance_km": 0.0, "snapped": true, "snap_distance_m": 84.58, "road_node": 4182}, "geometry": {"type": "Point", "coordinates": [85.3081759, 28.0358802]}}, {"type": "Feature", "properties": {"osm_id": 10603486359, "name": "\u092a\u093e\u0930\u091a\u094d\u092f\u093e\u0919\u094d\u0917", "place": "hamlet", "class": "still_connected", "priority_rank": 56, "priority_score": 0.0, "buildings_affected": 0, "extra_distance_km": 0.0, "snapped": true, "snap_distance_m": 103.73, "road_node": 3313}, "geometry": {"type": "Point", "coordinates": [85.2736249, 28.0115116]}}, {"type": "Feature", "properties": {"osm_id": 13370197379, "name": "\u0932\u093f\u0916\u0941", "place": "village", "class": "still_connected", "priority_rank": 11, "priority_score": 15.0, "buildings_affected": 15, "extra_distance_km": 0.0, "snapped": true, "snap_distance_m": 51.28, "road_node": 2671}, "geometry": {"type": "Point", "coordinates": [85.2425148, 27.8883235]}}, {"type": "Feature", "properties": {"osm_id": 341538732, "name": "place/hamlet", "place": "hamlet", "class": "still_connected", "priority_rank": 13, "priority_score": 3.0, "buildings_affected": 3, "extra_distance_km": 0.0, "snapped": true, "snap_distance_m": 230.11, "road_node": 3465}, "geometry": {"type": "Point", "coordinates": [85.28331114747775, 27.89924535]}}, {"type": "Feature", "properties": {"osm_id": 3484453637, "name": "place/hamlet", "place": "hamlet", "class": "still_connected", "priority_rank": 27, "priority_score": 0.0, "buildings_affected": 0, "extra_distance_km": 0.0, "snapped": true, "snap_distance_m": 176.26, "road_node": 1047}, "geometry": {"type": "Point", "coordinates": [85.1761161, 27.9146656]}}, {"type": "Feature", "properties": {"osm_id": 268864226, "name": "\u092c\u0947\u0924\u094d\u0930\u093e\u0935\u0924\u0940", "place": "hamlet", "class": "newly_cut_off", "priority_rank": 1, "priority_score": 176.0, "buildings_affected": 174, "extra_distance_km": null, "snapped": true, "snap_distance_m": 35.27, "road_node": 1341}, "geometry": {"type": "Point", "coordinates": [85.1859528, 27.9731085]}}, {"type": "Feature", "properties": {"osm_id": 10603537479, "name": "\u0928\u094c\u0935\u093f\u0938\u0947 \u092b\u093e\u0901\u091f", "place": "hamlet", "class": "no_pre_event_access", "priority_rank": 2, "priority_score": 174.0, "buildings_affected": 173, "extra_distance_km": null, "snapped": true, "snap_distance_m": 187.16, "road_node": 1316}, "geometry": {"type": "Point", "coordinates": [85.1825623, 27.984691]}}, {"type": "Feature", "properties": {"osm_id": 3483342625, "name": "place/hamlet", "place": "hamlet", "class": "still_connected", "priority_rank": 28, "priority_score": 0.0, "buildings_affected": 0, "extra_distance_km": 0.0, "snapped": true, "snap_distance_m": 77.37, "road_node": 4907}, "geometry": {"type": "Point", "coordinates": [85.343484, 27.9700845]}}, {"type": "Feature", "properties": {"osm_id": 3496148178, "name": "\u0925\u093e\u092a\u093e \u0917\u093e\u0909\u0901", "place": "hamlet", "class": "still_connected", "priority_rank": 7, "priority_score": 32.0, "buildings_affected": 32, "extra_distance_km": 0.0, "snapped": true, "snap_distance_m": 240.39, "road_node": 4097}, "geometry": {"type": "Point", "coordinates": [85.304533, 27.8554443]}}, {"type": "Feature", "properties": {"osm_id": 10923413444, "name": "\u0915\u094b\u092e\u0941", "place": "hamlet", "class": "still_connected", "priority_rank": 40, "priority_score": 0.0, "buildings_affected": 0, "extra_distance_km": 0.0, "snapped": true, "snap_distance_m": 41.39, "road_node": 3017}, "geometry": {"type": "Point", "coordinates": [85.2537777, 28.0092053]}}, {"type": "Feature", "properties": {"osm_id": 3691065952, "name": "\u0938\u093e\u0924\u0926\u094b\u092c\u093e\u091f\u094b", "place": "hamlet", "class": "still_connected", "priority_rank": 61, "priority_score": 0.0, "buildings_affected": 0, "extra_distance_km": 0.0, "snapped": true, "snap_distance_m": 54.76, "road_node": 621}, "geometry": {"type": "Point", "coordinates": [85.1638055, 28.0036486]}}, {"type": "Feature", "properties": {"osm_id": 1869598518, "name": "\u0915\u093e\u091c\u093f\u0928 \u0921\u093e\u0901\u0921\u093e", "place": "hamlet", "class": "still_connected", "priority_rank": 37, "priority_score": 0.0, "buildings_affected": 0, "extra_distance_km": 0.0, "snapped": true, "snap_distance_m": 210.14, "road_node": 1135}, "geometry": {"type": "Point", "coordinates": [85.180529, 27.8625873]}}, {"type": "Feature", "properties": {"osm_id": 13242877439, "name": "\u0928\u094c\u0915\u0941\u0923\u094d\u0921", "place": "village", "class": "still_connected", "priority_rank": 53, "priority_score": 0.0, "buildings_affected": 0, "extra_distance_km": 0.0, "snapped": true, "snap_distance_m": 247.88, "road_node": 3305}, "geometry": {"type": "Point", "coordinates": [85.2765945, 28.0107971]}}, {"type": "Feature", "properties": {"osm_id": 10603458426, "name": "\u0938\u093e\u0932\u093f\u092e \u092d\u093f\u0924\u094d\u0924\u093e", "place": "hamlet", "class": "still_connected", "priority_rank": 20, "priority_score": 2.0, "buildings_affected": 2, "extra_distance_km": 0.065315, "snapped": true, "snap_distance_m": 75.26, "road_node": 1266}, "geometry": {"type": "Point", "coordinates": [85.181726, 28.0235604]}}, {"type": "Feature", "properties": {"osm_id": 10923401248, "name": "\u091a\u094d\u092f\u0941\u092a\u0930 \u0916\u094b\u0932\u093e", "place": "hamlet", "class": "no_pre_event_access", "priority_rank": 26, "priority_score": 1.0, "buildings_affected": 0, "extra_distance_km": null, "snapped": false, "snap_distance_m": null, "road_node": -1}, "geometry": {"type": "Point", "coordinates": [85.2869612, 28.0268547]}}, {"type": "Feature", "properties": {"osm_id": 341538728, "name": "place/hamlet", "place": "hamlet", "class": "still_connected", "priority_rank": 18, "priority_score": 2.0, "buildings_affected": 2, "extra_distance_km": 0.0, "snapped": true, "snap_distance_m": 147.69, "road_node": 3429}, "geometry": {"type": "Point", "coordinates": [85.28115579169015, 27.8991975]}}, {"type": "Feature", "properties": {"osm_id": 341538740, "name": "place/hamlet", "place": "hamlet", "class": "still_connected", "priority_rank": 21, "priority_score": 1.0, "buildings_affected": 1, "extra_distance_km": 0.0, "snapped": true, "snap_distance_m": 6.98, "road_node": 3465}, "geometry": {"type": "Point", "coordinates": [85.28217022104035, 27.8974504]}}, {"type": "Feature", "properties": {"osm_id": 3484417792, "name": "place/hamlet", "place": "hamlet", "class": "still_connected", "priority_rank": 29, "priority_score": 0.0, "buildings_affected": 0, "extra_distance_km": 0.0, "snapped": true, "snap_distance_m": 30.11, "road_node": 3257}, "geometry": {"type": "Point", "coordinates": [85.2721161, 27.9945574]}}, {"type": "Feature", "properties": {"osm_id": 10923402625, "name": "\u0915\u092a\u094d\u0924\u093e\u0932\u0940", "place": "hamlet", "class": "still_connected", "priority_rank": 36, "priority_score": 0.0, "buildings_affected": 0, "extra_distance_km": 0.0, "snapped": true, "snap_distance_m": 42.34, "road_node": 3134}, "geometry": {"type": "Point", "coordinates": [85.2604973, 27.9994886]}}, {"type": "Feature", "properties": {"osm_id": 341538706, "name": "place/hamlet", "place": "hamlet", "class": "still_connected", "priority_rank": 4, "priority_score": 40.0, "buildings_affected": 40, "extra_distance_km": 0.0, "snapped": true, "snap_distance_m": 83.71, "road_node": 3532}, "geometry": {"type": "Point", "coordinates": [85.28393026930857, 27.909615549999998]}}, {"type": "Feature", "properties": {"osm_id": 341538712, "name": "place/hamlet", "place": "hamlet", "class": "still_connected", "priority_rank": 5, "priority_score": 40.0, "buildings_affected": 40, "extra_distance_km": 0.0, "snapped": true, "snap_distance_m": 66.78, "road_node": 3542}, "geometry": {"type": "Point", "coordinates": [85.28426161458412, 27.90954295]}}, {"type": "Feature", "properties": {"osm_id": 1851061582, "name": "\u0926\u093e\u0919\u092e\u093e\u0908", "place": "hamlet", "class": "still_connected", "priority_rank": 51, "priority_score": 0.0, "buildings_affected": 0, "extra_distance_km": 0.0, "snapped": true, "snap_distance_m": 23.63, "road_node": 1531}, "geometry": {"type": "Point", "coordinates": [85.194453, 27.8664405]}}, {"type": "Feature", "properties": {"osm_id": 3651242335, "name": "place/hamlet", "place": "hamlet", "class": "still_connected", "priority_rank": 8, "priority_score": 19.0, "buildings_affected": 19, "extra_distance_km": 0.0, "snapped": true, "snap_distance_m": 187.92, "road_node": 3414}, "geometry": {"type": "Point", "coordinates": [85.2820927, 27.9038871]}}, {"type": "Feature", "properties": {"osm_id": 341538721, "name": "place/hamlet", "place": "hamlet", "class": "still_connected", "priority_rank": 14, "priority_score": 3.0, "buildings_affected": 3, "extra_distance_km": 0.0, "snapped": true, "snap_distance_m": 125.94, "road_node": 3429}, "geometry": {"type": "Point", "coordinates": [85.28155964525641, 27.8995288]}}, {"type": "Feature", "properties": {"osm_id": 10603591972, "name": "\u0938\u0930\u0938\u093f\u0909", "place": "hamlet", "class": "still_connected", "priority_rank": 60, "priority_score": 0.0, "buildings_affected": 0, "extra_distance_km": 0.0, "snapped": true, "snap_distance_m": 105.33, "road_node": 2841}, "geometry": {"type": "Point", "coordinates": [85.2481629, 28.0042411]}}, {"type": "Feature", "properties": {"osm_id": 10923399838, "name": "\u092e\u093e\u0928\u094d\u0921\u0941\u091a\u0947\u091f", "place": "hamlet", "class": "still_connected", "priority_rank": 58, "priority_score": 0.0, "buildings_affected": 0, "extra_distance_km": 0.0, "snapped": true, "snap_distance_m": 271.45, "road_node": 3229}, "geometry": {"type": "Point", "coordinates": [85.2699402, 27.9989545]}}, {"type": "Feature", "properties": {"osm_id": 10923410731, "name": "\u0918\u093f\u091a\u0947\u0924", "place": "hamlet", "class": "still_connected", "priority_rank": 43, "priority_score": 0.0, "buildings_affected": 0, "extra_distance_km": 0.0, "snapped": true, "snap_distance_m": 213.09, "road_node": 3628}, "geometry": {"type": "Point", "coordinates": [85.2871624, 28.005871]}}, {"type": "Feature", "properties": {"osm_id": 3415525225, "name": "\u0938\u093f\u092e\u094d\u0932\u0947", "place": "hamlet", "class": "still_connected", "priority_rank": 25, "priority_score": 1.0, "buildings_affected": 1, "extra_distance_km": 0.065315, "snapped": true, "snap_distance_m": 54.09, "road_node": 1528}, "geometry": {"type": "Point", "coordinates": [85.1911972, 28.0292002]}}, {"type": "Feature", "properties": {"osm_id": 10923390428, "name": "\u0926\u0928\u0941\u0938\u094d\u0935\u093e\u0930\u093e", "place": "hamlet", "class": "still_connected", "priority_rank": 50, "priority_score": 0.0, "buildings_affected": 0, "extra_distance_km": 0.0, "snapped": true, "snap_distance_m": 69.52, "road_node": 3156}, "geometry": {"type": "Point", "coordinates": [85.2633706, 27.9730206]}}, {"type": "Feature", "properties": {"osm_id": 10923411849, "name": "\u092c\u0921\u0939\u0930\u0947", "place": "hamlet", "class": "still_connected", "priority_rank": 57, "priority_score": 0.0, "buildings_affected": 0, "extra_distance_km": 0.0, "snapped": true, "snap_distance_m": 42.46, "road_node": 2584}, "geometry": {"type": "Point", "coordinates": [85.2369942, 27.9847648]}}, {"type": "Feature", "properties": {"osm_id": 10923421509, "name": "\u0918\u093f\u091a\u0947\u0924 \u0918\u091f\u0947\u0932\u0941\u0919", "place": "hamlet", "class": "still_connected", "priority_rank": 44, "priority_score": 0.0, "buildings_affected": 0, "extra_distance_km": 0.0, "snapped": true, "snap_distance_m": 46.84, "road_node": 3589}, "geometry": {"type": "Point", "coordinates": [85.2841561, 28.0030286]}}, {"type": "Feature", "properties": {"osm_id": 13369073592, "name": "\u0924\u093e\u0926\u0940", "place": "village", "class": "still_connected", "priority_rank": 9, "priority_score": 19.0, "buildings_affected": 19, "extra_distance_km": 0.762895, "snapped": true, "snap_distance_m": 82.72, "road_node": 4192}, "geometry": {"type": "Point", "coordinates": [85.3089438, 27.924158]}}, {"type": "Feature", "properties": {"osm_id": 13370197377, "name": "\u0938\u0942\u0930\u094d\u092f\u0917\u0922\u0940", "place": "village", "class": "still_connected", "priority_rank": 62, "priority_score": 0.0, "buildings_affected": 0, "extra_distance_km": 0.0, "snapped": true, "snap_distance_m": 94.16, "road_node": 2407}, "geometry": {"type": "Point", "coordinates": [85.2289043, 27.9505776]}}, {"type": "Feature", "properties": {"osm_id": 3504477175, "name": "\u091d\u0930\u094d\u0915\u0932\u0947\u0930\u0940", "place": "hamlet", "class": "still_connected", "priority_rank": 46, "priority_score": 0.0, "buildings_affected": 0, "extra_distance_km": 0.065315, "snapped": true, "snap_distance_m": 48.44, "road_node": 1008}, "geometry": {"type": "Point", "coordinates": [85.1714444, 28.0280757]}}, {"type": "Feature", "properties": {"osm_id": 341538806, "name": "place/hamlet", "place": "hamlet", "class": "still_connected", "priority_rank": 22, "priority_score": 1.0, "buildings_affected": 1, "extra_distance_km": 0.0, "snapped": true, "snap_distance_m": 95.09, "road_node": 3450}, "geometry": {"type": "Point", "coordinates": [85.28147687679363, 27.898513]}}, {"type": "Feature", "properties": {"osm_id": 3484404878, "name": "place/hamlet", "place": "hamlet", "class": "still_connected", "priority_rank": 30, "priority_score": 0.0, "buildings_affected": 0, "extra_distance_km": 0.0, "snapped": true, "snap_distance_m": 18.84, "road_node": 2761}, "geometry": {"type": "Point", "coordinates": [85.2447622, 27.987457]}}, {"type": "Feature", "properties": {"osm_id": 3484453635, "name": "place/hamlet", "place": "hamlet", "class": "still_connected", "priority_rank": 19, "priority_score": 2.0, "buildings_affected": 2, "extra_distance_km": 0.0, "snapped": true, "snap_distance_m": 84.37, "road_node": 710}, "geometry": {"type": "Point", "coordinates": [85.1677864, 27.9027345]}}, {"type": "Feature", "properties": {"osm_id": 13370197380, "name": "\u092a\u091e\u094d\u091a\u0915\u0928\u094d\u092f\u093e", "place": "village", "class": "still_connected", "priority_rank": 54, "priority_score": 0.0, "buildings_affected": 0, "extra_distance_km": 0.0, "snapped": true, "snap_distance_m": 72.21, "road_node": 4330}, "geometry": {"type": "Point", "coordinates": [85.314311, 27.8890264]}}, {"type": "Feature", "properties": {"osm_id": 1875573901, "name": "\u092a\u0932\u094d\u0932\u094b \u0926\u093e\u0919\u092e\u093e\u0908", "place": "hamlet", "class": "still_connected", "priority_rank": 55, "priority_score": 0.0, "buildings_affected": 0, "extra_distance_km": 0.0, "snapped": true, "snap_distance_m": 22.03, "road_node": 1123}, "geometry": {"type": "Point", "coordinates": [85.1783169, 27.8516359]}}, {"type": "Feature", "properties": {"osm_id": 10923406688, "name": "\u0925\u093e\u0919\u094d\u0938\u0947\u0928 \u092f\u0941\u0935\u093e", "place": "hamlet", "class": "still_connected", "priority_rank": 49, "priority_score": 0.0, "buildings_affected": 0, "extra_distance_km": 0.0, "snapped": true, "snap_distance_m": 131.35, "road_node": 4100}, "geometry": {"type": "Point", "coordinates": [85.3037755, 28.0076821]}}, {"type": "Feature", "properties": {"osm_id": 10603466952, "name": "\u0922\u0941\u0919\u094d\u0917\u0947", "place": "hamlet", "class": "still_connected", "priority_rank": 48, "priority_score": 0.0, "buildings_affected": 0, "extra_distance_km": 0.0, "snapped": true, "snap_distance_m": 34.7, "road_node": 1810}, "geometry": {"type": "Point", "coordinates": [85.2030983, 28.0142354]}}, {"type": "Feature", "properties": {"osm_id": 341538736, "name": "place/hamlet", "place": "hamlet", "class": "still_connected", "priority_rank": 23, "priority_score": 1.0, "buildings_affected": 1, "extra_distance_km": 0.0, "snapped": true, "snap_distance_m": 52.73, "road_node": 3450}, "geometry": {"type": "Point", "coordinates": [85.28174016392558, 27.898141449999997]}}, {"type": "Feature", "properties": {"osm_id": 4226430344, "name": "\u0915\u093e\u0930\u094d\u0915\u0940 \u0917\u093e\u0909\u0901", "place": "hamlet", "class": "still_connected", "priority_rank": 38, "priority_score": 0.0, "buildings_affected": 0, "extra_distance_km": 0.0, "snapped": true, "snap_distance_m": 23.98, "road_node": 1032}, "geometry": {"type": "Point", "coordinates": [85.1726939, 28.0001697]}}, {"type": "Feature", "properties": {"osm_id": 13242877441, "name": "\u0915\u093e\u0932\u093f\u0915\u093e", "place": "village", "class": "still_connected", "priority_rank": 39, "priority_score": 0.0, "buildings_affected": 0, "extra_distance_km": 0.0, "snapped": true, "snap_distance_m": 71.09, "road_node": 2046}, "geometry": {"type": "Point", "coordinates": [85.2134318, 28.0059409]}}, {"type": "Feature", "properties": {"osm_id": 4967937739, "name": "\u0927\u0907\u092c\u0941\u0919", "place": "hamlet", "class": "still_connected", "priority_rank": 52, "priority_score": 0.0, "buildings_affected": 0, "extra_distance_km": 0.0, "snapped": true, "snap_distance_m": 188.59, "road_node": 2036}, "geometry": {"type": "Point", "coordinates": [85.2112403, 28.0021505]}}, {"type": "Feature", "properties": {"osm_id": 10603476241, "name": "\u0918\u094b\u0930\u094d\u092e\u0941", "place": "hamlet", "class": "still_connected", "priority_rank": 45, "priority_score": 0.0, "buildings_affected": 0, "extra_distance_km": 0.0, "snapped": true, "snap_distance_m": 327.55, "road_node": 2969}, "geometry": {"type": "Point", "coordinates": [85.2525951, 28.0135003]}}, {"type": "Feature", "properties": {"osm_id": 2857852085, "name": "\u092d\u0948\u0902\u0938\u0947", "place": "hamlet", "class": "still_connected", "priority_rank": 3, "priority_score": 108.0, "buildings_affected": 108, "extra_distance_km": 9.588576, "snapped": true, "snap_distance_m": 120.69, "road_node": 847}, "geometry": {"type": "Point", "coordinates": [85.1703311, 27.9603671]}}, {"type": "Feature", "properties": {"osm_id": 3476508984, "name": "\u092f\u0941\u092c\u094d\u0930\u093e", "place": "village", "class": "still_connected", "priority_rank": 59, "priority_score": 0.0, "buildings_affected": 0, "extra_distance_km": 0.0, "snapped": true, "snap_distance_m": 126.38, "road_node": 4030}, "geometry": {"type": "Point", "coordinates": [85.300912, 28.0049343]}}, {"type": "Feature", "properties": {"osm_id": 5052958023, "name": "\u0917\u0923\u0947\u0936\u0938\u094d\u0925\u093e\u0928", "place": "village", "class": "still_connected", "priority_rank": 42, "priority_score": 0.0, "buildings_affected": 0, "extra_distance_km": 0.0, "snapped": true, "snap_distance_m": 45.29, "road_node": 2612}, "geometry": {"type": "Point", "coordinates": [85.2402156, 27.9169995]}}, {"type": "Feature", "properties": {"osm_id": 13242877440, "name": "\u0909\u0924\u094d\u0924\u0930\u0917\u092f\u093e", "place": "village", "class": "still_connected", "priority_rank": 34, "priority_score": 0.0, "buildings_affected": 0, "extra_distance_km": 0.0, "snapped": true, "snap_distance_m": 92.26, "road_node": 1582}, "geometry": {"type": "Point", "coordinates": [85.1951685, 28.0116144]}}, {"type": "Feature", "properties": {"osm_id": 3415524999, "name": "\u0936\u093e\u0928\u094d\u0924\u093f \u092c\u091c\u093e\u0930", "place": "hamlet", "class": "still_connected", "priority_rank": 12, "priority_score": 15.0, "buildings_affected": 15, "extra_distance_km": 0.065315, "snapped": true, "snap_distance_m": 174.77, "road_node": 1239}, "geometry": {"type": "Point", "coordinates": [85.1814642, 28.0172009]}}, {"type": "Feature", "properties": {"osm_id": 10603591893, "name": "\u0916\u093e\u0932\u091a\u0947\u0924", "place": "hamlet", "class": "still_connected", "priority_rank": 41, "priority_score": 0.0, "buildings_affected": 0, "extra_distance_km": 0.0, "snapped": true, "snap_distance_m": 45.6, "road_node": 2596}, "geometry": {"type": "Point", "coordinates": [85.237744, 27.9995788]}}, {"type": "Feature", "properties": {"osm_id": 10923355998, "name": "\u090f\u0915\u094d\u092a\u093e\u0916\u0947", "place": "hamlet", "class": "still_connected", "priority_rank": 35, "priority_score": 0.0, "buildings_affected": 0, "extra_distance_km": 0.0, "snapped": true, "snap_distance_m": 78.21, "road_node": 3177}, "geometry": {"type": "Point", "coordinates": [85.2636698, 28.002583]}}, {"type": "Feature", "properties": {"osm_id": 341538713, "name": "place/hamlet", "place": "hamlet", "class": "still_connected", "priority_rank": 15, "priority_score": 3.0, "buildings_affected": 3, "extra_distance_km": 0.0, "snapped": true, "snap_distance_m": 152.33, "road_node": 3429}, "geometry": {"type": "Point", "coordinates": [85.2816810207936, 27.8993162]}}, {"type": "Feature", "properties": {"osm_id": 3476508989, "name": "place/hamlet", "place": "hamlet", "class": "still_connected", "priority_rank": 31, "priority_score": 0.0, "buildings_affected": 0, "extra_distance_km": 0.0, "snapped": true, "snap_distance_m": 56.79, "road_node": 4147}, "geometry": {"type": "Point", "coordinates": [85.3064179, 28.0179632]}}, {"type": "Feature", "properties": {"osm_id": 3484453634, "name": "place/hamlet", "place": "hamlet", "class": "still_connected", "priority_rank": 16, "priority_score": 3.0, "buildings_affected": 3, "extra_distance_km": 0.0, "snapped": true, "snap_distance_m": 34.1, "road_node": 692}, "geometry": {"type": "Point", "coordinates": [85.1671039, 27.8994037]}}, {"type": "Feature", "properties": {"osm_id": 3415524998, "name": "\u0905\u0930\u094d\u091a\u0932\u0947", "place": "hamlet", "class": "still_connected", "priority_rank": 24, "priority_score": 1.0, "buildings_affected": 1, "extra_distance_km": 0.065315, "snapped": true, "snap_distance_m": 65.74, "road_node": 1159}, "geometry": {"type": "Point", "coordinates": [85.1765028, 28.0170397]}}, {"type": "Feature", "properties": {"osm_id": 3477194430, "name": "place/hamlet", "place": "hamlet", "class": "still_connected", "priority_rank": 32, "priority_score": 0.0, "buildings_affected": 0, "extra_distance_km": 0.0, "snapped": true, "snap_distance_m": 67.83, "road_node": 3372}, "geometry": {"type": "Point", "coordinates": [85.2774098, 28.0263775]}}, {"type": "Feature", "properties": {"osm_id": 3484453636, "name": "place/hamlet", "place": "hamlet", "class": "still_connected", "priority_rank": 33, "priority_score": 0.0, "buildings_affected": 0, "extra_distance_km": 0.0, "snapped": true, "snap_distance_m": 28.12, "road_node": 822}, "geometry": {"type": "Point", "coordinates": [85.1698489, 27.9109717]}}, {"type": "Feature", "properties": {"osm_id": 341538738, "name": "place/hamlet", "place": "hamlet", "class": "still_connected", "priority_rank": 17, "priority_score": 3.0, "buildings_affected": 3, "extra_distance_km": 0.0, "snapped": true, "snap_distance_m": 185.23, "road_node": 3450}, "geometry": {"type": "Point", "coordinates": [85.28249163960649, 27.8991709]}}, {"type": "Feature", "properties": {"osm_id": 4301134727, "name": "Ashmure", "place": "hamlet", "class": "still_connected", "priority_rank": 6, "priority_score": 32.0, "buildings_affected": 32, "extra_distance_km": 0.0, "snapped": true, "snap_distance_m": 79.17, "road_node": 4189}, "geometry": {"type": "Point", "coordinates": [85.309668, 27.8606276]}}]}