{"type": "FeatureCollection", "crs": {"type": "name", "properties": {"name": "urn:ogc:def:crs:EPSG::4326"}}, "features": [{"type": "Feature", "properties": {"osm_id": 342109531, "status": "unaffected", "confidence": "low", "flooded_fraction": 0.0139, "name": null, "highway": "path", "structure": "road_bridge", "buffer_m": 15.0, "mean_probability": 0.01, "length_km": 0.015618}, "geometry": {"type": "LineString", "coordinates": [[85.3233767, 28.0421071], [85.3234367, 28.0419766]]}}, {"type": "Feature", "properties": {"osm_id": 327399108, "status": "unaffected", "confidence": "high", "flooded_fraction": 0.0, "name": "Kharanitar-Satbishe Road", "highway": "secondary", "structure": "road_bridge", "buffer_m": 15.0, "mean_probability": 0.0, "length_km": 0.042085}, "geometry": {"type": "LineString", "coordinates": [[85.3440311, 27.9239336], [85.3444415, 27.923827]]}}, {"type": "Feature", "properties": {"osm_id": 342231411, "status": "unaffected", "confidence": "high", "flooded_fraction": 0.0, "name": null, "highway": "footway", "structure": "road_bridge", "buffer_m": 15.0, "mean_probability": 0.0, "length_km": 0.040315}, "geometry": {"type": "LineString", "coordinates": [[85.2000708, 27.8831171], [85.2003637, 27.8833713]]}}, {"type": "Feature", "properties": {"osm_id": 342530058, "status": "unaffected", "confidence": "high", "flooded_fraction": 0.0, "name": null, "highway": "footway", "structure": "road_bridge", "buffer_m": 15.0, "mean_probability": 0.0, "length_km": 0.02504}, "geometry": {"type": "LineString", "coordinates": [[85.3062209, 27.9452336], [85.3064543, 27.9451436]]}}, {"type": "Feature", "properties": {"osm_id": 924501002, "status": "unaffected", "confidence": "high", "flooded_fraction": 0.0, "name": null, "highway": "unclassified", "structure": "road_bridge", "buffer_m": 15.0, "mean_probability": 0.0, "length_km": 0.012927}, "geometry": {"type": "LineString", "coordinates": [[85.2553359, 28.0310576], [85.2553024, 28.0311704]]}}, {"type": "Feature", "properties": {"osm_id": 341654843, "status": "unaffected", "confidence": "high", "flooded_fraction": 0.0, "name": null, "highway": "footway", "structure": "road_bridge", "buffer_m": 15.0, "mean_probability": 0.0, "length_km": 0.044913}, "geometry": {"type": "LineString", "coordinates": [[85.1503987, 27.9278286], [85.15, 27.927631484308847]]}}, {"type": "Feature", "properties": {"osm_id": 341165498, "status": "possibly_impacted", "confidence": "medium", "flooded_fraction": 0.4, "name": null, "highway": "footway", "structure": "road_bridge", "buffer_m": 15.0, "mean_probability": 0.3766, "length_km": 0.108306}, "geometry": {"type": "LineString", "coordinates": [[85.2426597, 27.9730539], [85.2433097, 27.9738427]]}}, {"type": "Feature", "properties": {"osm_id": 342369531, "status": "unaffected", "confidence": "high", "flooded_fraction": 0.0, "name": null, "highway": "secondary", "structure": "road_bridge", "buffer_m": 15.0, "mean_probability": 0.0, "length_km": 0.007205}, "geometry": {"type": "LineString", "coordinates": [[85.2666811, 27.8745663], [85.2666131, 27.8745903]]}}, {"type": "Feature", "properties": {"osm_id": 340476882, "status": "unaffected", "confidence": "high", "flooded_fraction": 0.0, "name": null, "highway": "unclassified", "structure": "road_bridge", "buffer_m": 15.0, "mean_probability": 0.0, "length_km": 0.059371}, "geometry": {"type": "LineString", "coordinates": [[85.1755169, 27.9831375], [85.1755723, 27.9828679], [85.1756217, 27.9826099]]}}, {"type": "Feature", "properties": {"osm_id": 341705735, "status": "possibly_impacted", "confidence": "high", "flooded_fraction": 1.0, "name": null, "highway": "path", "structure": "road_bridge", "buffer_m": 15.0, "mean_probability": 0.8948, "length_km": 0.064941}, "geometry": {"type": "LineString", "coordinates": [[85.1810743, 27.9789257], [85.1816896, 27.9791379]]}}, {"type": "Feature", "properties": {"osm_id": 303051216, "status": "unaffected", "confidence": "high", "flooded_fraction": 0.0, "name": null, "highway": "footway", "structure": "road_bridge", "buffer_m": 15.0, "mean_probability": 0.0, "length_km": 0.33827}, "geometry": {"type": "LineString", "coordinates": [[85.1710589, 27.8953009], [85.1716427, 27.8938878], [85.1722759, 27.8924465]]}}, {"type": "Feature", "properties": {"osm_id": 342810694, "status": "possibly_impacted", "confidence": "medium", "flooded_fraction": 0.1071, "name": null, "highway": "path", "structure": "road_bridge", "buffer_m": 15.0, "mean_probability": 0.065, "length_km": 0.046454}, "geometry": {"type": "LineString", "coordinates": [[85.3060785, 28.0298496], [85.3063561, 28.0295104]]}}, {"type": "Feature", "properties": {"osm_id": 886678660, "status": "unaffected", "confidence": "high", "flooded_fraction": 0.0, "name": null, "highway": "unclassified", "structure": "road_bridge", "buffer_m": 15.0, "mean_probability": 0.0, "length_km": 0.053007}, "geometry": {"type": "LineString", "coordinates": [[85.2347623, 27.981773], [85.2353004, 27.9817483]]}}, {"type": "Feature", "properties": {"osm_id": 1408808862, "status": "unaffected", "confidence": "high", "flooded_fraction": 0.0, "name": null, "highway": "secondary", "structure": "road_bridge", "buffer_m": 15.0, "mean_probability": 0.0, "length_km": 0.036501}, "geometry": {"type": "LineString", "coordinates": [[85.3264396, 27.86203], [85.326804, 27.8620902]]}}, {"type": "Feature", "properties": {"osm_id": 341889629, "status": "unaffected", "confidence": "high", "flooded_fraction": 0.0, "name": null, "highway": "unclassified", "structure": "road_bridge", "buffer_m": 15.0, "mean_probability": 0.0, "length_km": 0.018143}, "geometry": {"type": "LineString", "coordinates": [[85.1614217, 27.948402], [85.1614311, 27.9482385]]}}, {"type": "Feature", "properties": {"osm_id": 341684802, "status": "possibly_impacted", "confidence": "low", "flooded_fraction": 0.25, "name": null, "highway": "path", "structure": "road_bridge", "buffer_m": 15.0, "mean_probability": 0.2346, "length_km": 0.008895}, "geometry": {"type": "LineString", "coordinates": [[85.3025162, 28.0136957], [85.3024413, 28.0137407]]}}, {"type": "Feature", "properties": {"osm_id": 342530344, "status": "unaffected", "confidence": "high", "flooded_fraction": 0.0, "name": null, "highway": "footway", "structure": "road_bridge", "buffer_m": 15.0, "mean_probability": 0.0, "length_km": 0.017142}, "geometry": {"type": "LineString", "coordinates": [[85.3034659, 27.9367611], [85.3035062, 27.9369116]]}}, {"type": "Feature", "properties": {"osm_id": 344083429, "status": "unaffected", "confidence": "high", "flooded_fraction": 0.0, "name": null, "highway": "unclassified", "structure": "road_bridge", "buffer_m": 15.0, "mean_probability": 0.0, "length_km": 0.007293}, "geometry": {"type": "LineString", "coordinates": [[85.243935, 28.020563], [85.2439069, 28.0206239]]}}, {"type": "Feature", "properties": {"osm_id": 466631627, "status": "unaffected", "confidence": "high", "flooded_fraction": 0.0, "name": "aanpraha bridge", "highway": "path", "structure": "road_bridge", "buffer_m": 15.0, "mean_probability": 0.0, "length_km": 0.067769}, "geometry": {"type": "LineString", "coordinates": [[85.2958955, 27.9176433], [85.2959946, 27.9170381]]}}, {"type": "Feature", "properties": {"osm_id": 1237974709, "status": "unaffected", "confidence": "high", "flooded_fraction": 0.0, "name": null, "highway": "unclassified", "structure": "road_bridge", "buffer_m": 15.0, "mean_probability": 0.0, "length_km": 0.009826}, "geometry": {"type": "LineString", "coordinates": [[85.26088, 27.9829426], [85.2608709, 27.9828543]]}}, {"type": "Feature", "properties": {"osm_id": 346567984, "status": "unaffected", "confidence": "high", "flooded_fraction": 0.0, "name": null, "highway": null, "structure": "other_bridge", "buffer_m": 15.0, "mean_probability": 0.0, "length_km": 0.022145}, "geometry": {"type": "LineString", "coordinates": [[85.1665018, 27.958337], [85.1666781, 27.9582128]]}}, {"type": "Feature", "properties": {"osm_id": 246173464, "status": "possibly_impacted", "confidence": "high", "flooded_fraction": 0.75, "name": null, "highway": null, "structure": "other_bridge", "buffer_m": 15.0, "mean_probability": 0.5511, "length_km": 0.118078}, "geometry": {"type": "LineString", "coordinates": [[85.1636551, 27.9561565], [85.1637456, 27.9559678], [85.163849, 27.9557297], [85.164114, 27.9551721]]}}, {"type": "Feature", "properties": {"osm_id": 341563115, "status": "possibly_impacted", "confidence": "high", "flooded_fraction": 1.0, "name": null, "highway": "unclassified", "structure": "road_bridge", "buffer_m": 15.0, "mean_probability": 0.9992, "length_km": 0.009757}, "geometry": {"type": "LineString", "coordinates": [[85.3247534, 27.9233934], [85.3247156, 27.9234748]]}}, {"type": "Feature", "properties": {"osm_id": 1547171073, "status": "unaffected", "confidence": "high", "flooded_fraction": 0.0, "name": "\u0930\u091a\u0923\u094d\u0921\u093e\u0901\u0921\u093e \u091d\u094b\u0932\u0941\u0919\u094d\u0917\u0947 \u092a\u0941\u0932", "highway": "path", "structure": "road_bridge", "buffer_m": 15.0, "mean_probability": 0.0, "length_km": 0.129613}, "geometry": {"type": "LineString", "coordinates": [[85.3093408, 27.8638834], [85.3103762, 27.8646055]]}}, {"type": "Feature", "properties": {"osm_id": 304401272, "status": "unaffected", "confidence": "high", "flooded_fraction": 0.0, "name": null, "highway": "unclassified", "structure": "road_bridge", "buffer_m": 15.0, "mean_probability": 0.0, "length_km": 0.094538}, "geometry": {"type": "LineString", "coordinates": [[85.2812484, 27.8699738], [85.2812033, 27.8698702], [85.2809024, 27.869178]]}}, {"type": "Feature", "properties": {"osm_id": 344083436, "status": "possibly_impacted", "confidence": "medium", "flooded_fraction": 0.1111, "name": null, "highway": "unclassified", "structure": "road_bridge", "buffer_m": 15.0, "mean_probability": 0.0573, "length_km": 0.017575}, "geometry": {"type": "LineString", "coordinates": [[85.2552898, 28.0316072], [85.2554325, 28.0317027]]}}, {"type": "Feature", "properties": {"osm_id": 886667752, "status": "unaffected", "confidence": "high", "flooded_fraction": 0.0, "name": null, "highway": "path", "structure": "road_bridge", "buffer_m": 15.0, "mean_probability": 0.0, "length_km": 0.119623}, "geometry": {"type": "LineString", "coordinates": [[85.2555075, 27.9730058], [85.2565241, 27.973598]]}}, {"type": "Feature", "properties": {"osm_id": 342147151, "status": "unaffected", "confidence": "high", "flooded_fraction": 0.0, "name": "Suspension Bridge", "highway": "footway", "structure": "road_bridge", "buffer_m": 15.0, "mean_probability": 0.0, "length_km": 0.104011}, "geometry": {"type": "LineString", "coordinates": [[85.1586835, 27.9390831], [85.1578364, 27.9396443]]}}, {"type": "Feature", "properties": {"osm_id": 341990757, "status": "possibly_impacted", "confidence": "high", "flooded_fraction": 0.8, "name": null, "highway": "footway", "structure": "road_bridge", "buffer_m": 15.0, "mean_probability": 0.7161, "length_km": 0.063309}, "geometry": {"type": "LineString", "coordinates": [[85.1653673, 28.0241638], [85.1653296, 28.0247341]]}}, {"type": "Feature", "properties": {"osm_id": 340571807, "status": "unaffected", "confidence": "high", "flooded_fraction": 0.0, "name": null, "highway": "footway", "structure": "road_bridge", "buffer_m": 15.0, "mean_probability": 0.0, "length_km": 0.077064}, "geometry": {"type": "LineString", "coordinates": [[85.3192815, 27.9208889], [85.3192145, 27.9215818]]}}, {"type": "Feature", "properties": {"osm_id": 342148060, "status": "unaffected", "confidence": "high", "flooded_fraction": 0.0, "name": null, "highway": "secondary", "structure": "road_bridge", "buffer_m": 15.0, "mean_probability": 0.0, "length_km": 0.081004}, "geometry": {"type": "LineString", "coordinates": [[85.2075513, 27.8986514], [85.2076391, 27.8979246]]}}, {"type": "Feature", "properties": {"osm_id": 1238275511, "status": "possibly_impacted", "confidence": "medium", "flooded_fraction": 0.4444, "name": "Dorkhu Khola Bridge", "highway": "path", "structure": "road_bridge", "buffer_m": 15.0, "mean_probability": 0.3774, "length_km": 0.038245}, "geometry": {"type": "LineString", "coordinates": [[85.2996499, 27.9198471], [85.3000361, 27.919885]]}}, {"type": "Feature", "properties": {"osm_id": 340627636, "status": "unaffected", "confidence": "high", "flooded_fraction": 0.0, "name": null, "highway": "path", "structure": "road_bridge", "buffer_m": 15.0, "mean_probability": 0.0, "length_km": 0.177519}, "geometry": {"type": "LineString", "coordinates": [[85.2329426, 27.8964116], [85.2324149, 27.8948798]]}}, {"type": "Feature", "properties": {"osm_id": 341587490, "status": "unaffected", "confidence": "high", "flooded_fraction": 0.0, "name": null, "highway": "service", "structure": "road_bridge", "buffer_m": 15.0, "mean_probability": 0.0, "length_km": 0.067356}, "geometry": {"type": "LineString", "coordinates": [[85.1706307, 27.9636381], [85.1702496, 27.963347], [85.170068, 27.963355]]}}, {"type": "Feature", "properties": {"osm_id": 341880510, "status": "possibly_impacted", "confidence": "high", "flooded_fraction": 0.875, "name": null, "highway": "path", "structure": "road_bridge", "buffer_m": 15.0, "mean_probability": 0.7636, "length_km": 0.10894}, "geometry": {"type": "LineString", "coordinates": [[85.3318593, 27.9603471], [85.331379, 27.9612329]]}}, {"type": "Feature", "properties": {"osm_id": 1020776324, "status": "unaffected", "confidence": "high", "flooded_fraction": 0.0, "name": "Kharanitar-Satbishe Road", "highway": "secondary", "structure": "road_bridge", "buffer_m": 15.0, "mean_probability": 0.0, "length_km": 0.013735}, "geometry": {"type": "LineString", "coordinates": [[85.3277588, 27.9254283], [85.3278923, 27.9253922]]}}, {"type": "Feature", "properties": {"osm_id": 340503483, "status": "unaffected", "confidence": "high", "flooded_fraction": 0.0, "name": null, "highway": "unclassified", "structure": "road_bridge", "buffer_m": 15.0, "mean_probability": 0.0, "length_km": 0.016778}, "geometry": {"type": "LineString", "coordinates": [[85.1640549, 27.9551629], [85.1642206, 27.9551986]]}}, {"type": "Feature", "properties": {"osm_id": 341365771, "status": "possibly_impacted", "confidence": "high", "flooded_fraction": 1.0, "name": "Chhahare Kabilash Suspension Bridge", "highway": "path", "structure": "road_bridge", "buffer_m": 15.0, "mean_probability": 0.9963, "length_km": 0.213251}, "geometry": {"type": "LineString", "coordinates": [[85.2824346, 27.870595], [85.2824986, 27.8686714]]}}, {"type": "Feature", "properties": {"osm_id": 341858953, "status": "unaffected", "confidence": "low", "flooded_fraction": 0.0435, "name": "\u092b\u0921\u094d\u0915\u0947", "highway": "path", "structure": "road_bridge", "buffer_m": 15.0, "mean_probability": 0.0284, "length_km": 0.049265}, "geometry": {"type": "LineString", "coordinates": [[85.301419, 27.9173373], [85.3011931, 27.9174329], [85.3009671, 27.9175284]]}}, {"type": "Feature", "properties": {"osm_id": 924501008, "status": "unaffected", "confidence": "high", "flooded_fraction": 0.0, "name": null, "highway": "path", "structure": "road_bridge", "buffer_m": 15.0, "mean_probability": 0.0, "length_km": 0.108951}, "geometry": {"type": "LineString", "coordinates": [[85.2706566, 28.0170146], [85.2717644, 28.0170028]]}}, {"type": "Feature", "properties": {"osm_id": 1039308071, "status": "unaffected", "confidence": "high", "flooded_fraction": 0.0, "name": null, "highway": "path", "structure": "road_bridge", "buffer_m": 15.0, "mean_probability": 0.0, "length_km": 0.037007}, "geometry": {"type": "LineString", "coordinates": [[85.312691, 27.9557105], [85.3126838, 27.9553766]]}}, {"type": "Feature", "properties": {"osm_id": 340729961, "status": "unaffected", "confidence": "high", "flooded_fraction": 0.0, "name": null, "highway": "secondary", "structure": "road_bridge", "buffer_m": 15.0, "mean_probability": 0.0, "length_km": 0.029551}, "geometry": {"type": "LineString", "coordinates": [[85.2848606, 27.8662746], [85.2845933, 27.8663958]]}}, {"type": "Feature", "properties": {"osm_id": 886401724, "status": "unaffected", "confidence": "high", "flooded_fraction": 0.0, "name": null, "highway": "unclassified", "structure": "road_bridge", "buffer_m": 15.0, "mean_probability": 0.0, "length_km": 0.009505}, "geometry": {"type": "LineString", "coordinates": [[85.1854071, 27.8579315], [85.1854032, 27.8578458]]}}, {"type": "Feature", "properties": {"osm_id": 343303369, "status": "unaffected", "confidence": "high", "flooded_fraction": 0.0, "name": null, "highway": "path", "structure": "road_bridge", "buffer_m": 15.0, "mean_probability": 0.0, "length_km": 0.072719}, "geometry": {"type": "LineString", "coordinates": [[85.1797873, 27.9821684], [85.1797873, 27.9815122]]}}, {"type": "Feature", "properties": {"osm_id": 340450699, "status": "possibly_impacted", "confidence": "medium", "flooded_fraction": 0.4, "name": null, "highway": "path", "structure": "road_bridge", "buffer_m": 15.0, "mean_probability": 0.2978, "length_km": 0.029627}, "geometry": {"type": "LineString", "coordinates": [[85.2147015, 27.9920073], [85.2149616, 27.9918725]]}}, {"type": "Feature", "properties": {"osm_id": 341028063, "status": "unaffected", "confidence": "high", "flooded_fraction": 0.0, "name": null, "highway": "path", "structure": "road_bridge", "buffer_m": 15.0, "mean_probability": 0.0, "length_km": 0.126827}, "geometry": {"type": "LineString", "coordinates": [[85.2682808, 28.0101441], [85.2679064, 28.0090489]]}}, {"type": "Feature", "properties": {"osm_id": 1020797715, "status": "unaffected", "confidence": "high", "flooded_fraction": 0.0, "name": "Dupcheshwar Road", "highway": "secondary", "structure": "road_bridge", "buffer_m": 15.0, "mean_probability": 0.0, "length_km": 0.019668}, "geometry": {"type": "LineString", "coordinates": [[85.2097423, 27.9009754], [85.2099401, 27.9010003]]}}, {"type": "Feature", "properties": {"osm_id": 1128370677, "status": "unaffected", "confidence": "high", "flooded_fraction": 0.0, "name": "Dupcheshwar Road", "highway": "secondary", "structure": "road_bridge", "buffer_m": 15.0, "mean_probability": 0.0, "length_km": 0.014429}, "geometry": {"type": "LineString", "coordinates": [[85.2489207, 27.9106049], [85.2490582, 27.9105598]]}}, {"type": "Feature", "properties": {"osm_id": 1547173429, "status": "unaffected", "confidence": "high", "flooded_fraction": 0.0, "name": "Likhu Khola Bridge", "highway": "path", "structure": "road_bridge", "buffer_m": 15.0, "mean_probability": 0.0, "length_km": 0.192494}, "geometry": {"type": "LineString", "coordinates": [[85.2928615, 27.8630667], [85.293519, 27.8647026]]}}, {"type": "Feature", "properties": {"osm_id": 313836389, "status": "possibly_impacted", "confidence": "low", "flooded_fraction": 0.0556, "name": "Budune Bridge", "highway": "path", "structure": "road_bridge", "buffer_m": 15.0, "mean_probability": 0.0282, "length_km": 0.048703}, "geometry": {"type": "LineString", "coordinates": [[85.3117301, 27.9185908], [85.3119182, 27.9183369], [85.3120215, 27.9182371]]}}, {"type": "Feature", "properties": {"osm_id": 344083434, "status": "unaffected", "confidence": "high", "flooded_fraction": 0.0, "name": null, "highway": "residential", "structure": "road_bridge", "buffer_m": 15.0, "mean_probability": 0.0, "length_km": 0.007847}, "geometry": {"type": "LineString", "coordinates": [[85.2502668, 28.0286716], [85.2503398, 28.0287002]]}}, {"type": "Feature", "properties": {"osm_id": 887064406, "status": "unaffected", "confidence": "high", "flooded_fraction": 0.0, "name": null, "highway": "path", "structure": "road_bridge", "buffer_m": 15.0, "mean_probability": 0.0, "length_km": 0.015308}, "geometry": {"type": "LineString", "coordinates": [[85.2556966, 27.9963648], [85.2557972, 27.9964702]]}}, {"type": "Feature", "properties": {"osm_id": 340465627, "status": "unaffected", "confidence": "high", "flooded_fraction": 0.0, "name": null, "highway": "unclassified", "structure": "road_bridge", "buffer_m": 15.0, "mean_probability": 0.0, "length_km": 0.016639}, "geometry": {"type": "LineString", "coordinates": [[85.1940263, 28.0411414], [85.1939558, 28.0410049]]}}, {"type": "Feature", "properties": {"osm_id": 298744773, "status": "unaffected", "confidence": "high", "flooded_fraction": 0.0, "name": null, "highway": "unclassified", "structure": "road_bridge", "buffer_m": 15.0, "mean_probability": 0.0, "length_km": 0.048152}, "geometry": {"type": "LineString", "coordinates": [[85.1852005, 27.995359], [85.1848082, 27.9956189]]}}, {"type": "Feature", "properties": {"osm_id": 890920607, "status": "possibly_impacted", "confidence": "high", "flooded_fraction": 0.8333, "name": null, "highway": "unclassified", "structure": "road_bridge", "buffer_m": 15.0, "mean_probability": 0.6866, "length_km": 0.090431}, "geometry": {"type": "LineString", "coordinates": [[85.2953161, 27.9175361], [85.2955367, 27.9167439]]}}, {"type": "Feature", "properties": {"osm_id": 891567277, "status": "unaffected", "confidence": "high", "flooded_fraction": 0.0, "name": null, "highway": "secondary", "structure": "road_bridge", "buffer_m": 15.0, "mean_probability": 0.0, "length_km": 0.061074}, "geometry": {"type": "LineString", "coordinates": [[85.3490231, 27.8614319], [85.3493612, 27.8615326], [85.3496089, 27.8616127]]}}, {"type": "Feature", "properties": {"osm_id": 344558214, "status": "unaffected", "confidence": "high", "flooded_fraction": 0.0, "name": null, "highway": "track", "structure": "road_bridge", "buffer_m": 15.0, "mean_probability": 0.0, "length_km": 0.109686}, "geometry": {"type": "LineString", "coordinates": [[85.177321, 27.9395814], [85.1770176, 27.9405338]]}}, {"type": "Feature", "properties": {"osm_id": 379104231, "status": "unaffected", "confidence": "high", "flooded_fraction": 0.0, "name": "Pasang Lhamu Highway", "highway": "primary", "structure": "road_bridge", "buffer_m": 15.0, "mean_probability": 0.0, "length_km": 0.013769}, "geometry": {"type": "LineString", "coordinates": [[85.1548193, 27.9308323], [85.1549519, 27.9308719]]}}, {"type": "Feature", "properties": {"osm_id": 140411233, "status": "possibly_impacted", "confidence": "high", "flooded_fraction": 0.5, "name": null, "highway": "path", "structure": "road_bridge", "buffer_m": 15.0, "mean_probability": 0.3958, "length_km": 0.143901}, "geometry": {"type": "LineString", "coordinates": [[85.2070343, 27.8977269], [85.2067452, 27.8989998]]}}, {"type": "Feature", "properties": {"osm_id": 340491888, "status": "unaffected", "confidence": "high", "flooded_fraction": 0.0, "name": null, "highway": "footway", "structure": "road_bridge", "buffer_m": 15.0, "mean_probability": 0.0, "length_km": 0.059771}, "geometry": {"type": "LineString", "coordinates": [[85.334412, 27.9233123], [85.3343683, 27.9227743]]}}, {"type": "Feature", "properties": {"osm_id": 340540972, "status": "possibly_impacted", "confidence": "medium", "flooded_fraction": 0.3333, "name": null, "highway": "footway", "structure": "road_bridge", "buffer_m": 15.0, "mean_probability": 0.2308, "length_km": 0.026974}, "geometry": {"type": "LineString", "coordinates": [[85.3049238, 28.0069177], [85.3051702, 28.0068108]]}}, {"type": "Feature", "properties": {"osm_id": 924500912, "status": "unaffected", "confidence": "high", "flooded_fraction": 0.0, "name": null, "highway": "path", "structure": "road_bridge", "buffer_m": 15.0, "mean_probability": 0.0, "length_km": 0.105384}, "geometry": {"type": "LineString", "coordinates": [[85.2750125, 28.0200751], [85.2742615, 28.0193967]]}}, {"type": "Feature", "properties": {"osm_id": 341771090, "status": "unaffected", "confidence": "high", "flooded_fraction": 0.0, "name": null, "highway": "unclassified", "structure": "road_bridge", "buffer_m": 15.0, "mean_probability": 0.0, "length_km": 0.033886}, "geometry": {"type": "LineString", "coordinates": [[85.1828014, 28.0192675], [85.1830634, 28.0194661]]}}, {"type": "Feature", "properties": {"osm_id": 341461646, "status": "unaffected", "confidence": "high", "flooded_fraction": 0.0, "name": "Falaakhu River Bridge", "highway": "primary", "structure": "road_bridge", "buffer_m": 15.0, "mean_probability": 0.0, "length_km": 0.067022}, "geometry": {"type": "LineString", "coordinates": [[85.185882, 27.9739074], [85.1858603, 27.9739625], [85.1856624, 27.9744799]]}}, {"type": "Feature", "properties": {"osm_id": 341164952, "status": "possibly_impacted", "confidence": "high", "flooded_fraction": 1.0, "name": null, "highway": "path", "structure": "road_bridge", "buffer_m": 15.0, "mean_probability": 0.9943, "length_km": 0.095569}, "geometry": {"type": "LineString", "coordinates": [[85.2580221, 27.9729059], [85.2589671, 27.9727062]]}}, {"type": "Feature", "properties": {"osm_id": 341960505, "status": "unaffected", "confidence": "high", "flooded_fraction": 0.0, "name": null, "highway": "path", "structure": "road_bridge", "buffer_m": 15.0, "mean_probability": 0.0, "length_km": 0.064202}, "geometry": {"type": "LineString", "coordinates": [[85.2740935, 27.9872439], [85.2743579, 27.9867142]]}}, {"type": "Feature", "properties": {"osm_id": 342369816, "status": "unaffected", "confidence": "high", "flooded_fraction": 0.0, "name": null, "highway": "unclassified", "structure": "road_bridge", "buffer_m": 15.0, "mean_probability": 0.0, "length_km": 0.019081}, "geometry": {"type": "LineString", "coordinates": [[85.2665376, 27.8744744], [85.2664946, 27.8743065]]}}, {"type": "Feature", "properties": {"osm_id": 886947874, "status": "unaffected", "confidence": "high", "flooded_fraction": 0.0, "name": null, "highway": "unclassified", "structure": "road_bridge", "buffer_m": 15.0, "mean_probability": 0.0, "length_km": 0.015056}, "geometry": {"type": "LineString", "coordinates": [[85.2337334, 28.0132496], [85.2338406, 28.0131526]]}}, {"type": "Feature", "properties": {"osm_id": 340639576, "status": "unaffected", "confidence": "high", "flooded_fraction": 0.0, "name": null, "highway": "path", "structure": "road_bridge", "buffer_m": 15.0, "mean_probability": 0.0, "length_km": 0.04681}, "geometry": {"type": "LineString", "coordinates": [[85.2996527, 27.9650476], [85.2994968, 27.9646485]]}}, {"type": "Feature", "properties": {"osm_id": 343553910, "status": "unaffected", "confidence": "high", "flooded_fraction": 0.0, "name": null, "highway": "track", "structure": "road_bridge", "buffer_m": 15.0, "mean_probability": 0.0, "length_km": 0.013678}, "geometry": {"type": "LineString", "coordinates": [[85.1586576, 27.9442378], [85.1585316, 27.9442899]]}}, {"type": "Feature", "properties": {"osm_id": 237590778, "status": "unaffected", "confidence": "high", "flooded_fraction": 0.0, "name": null, "highway": "unclassified", "structure": "road_bridge", "buffer_m": 15.0, "mean_probability": 0.0, "length_km": 0.013804}, "geometry": {"type": "LineString", "coordinates": [[85.1569973, 27.9428974], [85.157114, 27.9428283]]}}, {"type": "Feature", "properties": {"osm_id": 340503487, "status": "unaffected", "confidence": "high", "flooded_fraction": 0.0, "name": null, "highway": "unclassified", "structure": "road_bridge", "buffer_m": 15.0, "mean_probability": 0.0, "length_km": 0.020094}, "geometry": {"type": "LineString", "coordinates": [[85.1638814, 27.9486223], [85.1638597, 27.9488026]]}}, {"type": "Feature", "properties": {"osm_id": 341028062, "status": "possibly_impacted", "confidence": "high", "flooded_fraction": 1.0, "name": null, "highway": "path", "structure": "road_bridge", "buffer_m": 15.0, "mean_probability": 0.8613, "length_km": 0.054015}, "geometry": {"type": "LineString", "coordinates": [[85.2673849, 28.0011048], [85.2676538, 28.0006798]]}}, {"type": "Feature", "properties": {"osm_id": 341866321, "status": "unaffected", "confidence": "high", "flooded_fraction": 0.0, "name": null, "highway": "path", "structure": "road_bridge", "buffer_m": 15.0, "mean_probability": 0.0, "length_km": 0.015051}, "geometry": {"type": "LineString", "coordinates": [[85.2813776, 27.9946381], [85.281318, 27.994513]]}}, {"type": "Feature", "properties": {"osm_id": 340474167, "status": "unaffected", "confidence": "high", "flooded_fraction": 0.0, "name": null, "highway": "path", "structure": "road_bridge", "buffer_m": 15.0, "mean_probability": 0.0, "length_km": 0.041653}, "geometry": {"type": "LineString", "coordinates": [[85.1833768, 28.0090056], [85.1838003, 28.009004]]}}, {"type": "Feature", "properties": {"osm_id": 346396399, "status": "possibly_impacted", "confidence": "medium", "flooded_fraction": 0.4286, "name": null, "highway": "path", "structure": "road_bridge", "buffer_m": 15.0, "mean_probability": 0.2865, "length_km": 0.020772}, "geometry": {"type": "LineString", "coordinates": [[85.3181989, 27.8591275], [85.3181936, 27.8593149]]}}, {"type": "Feature", "properties": {"osm_id": 341480538, "status": "unaffected", "confidence": "high", "flooded_fraction": 0.0, "name": null, "highway": "track", "structure": "road_bridge", "buffer_m": 15.0, "mean_probability": 0.0, "length_km": 0.011654}, "geometry": {"type": "LineString", "coordinates": [[85.2635152, 27.9789003], [85.2634073, 27.9788569]]}}, {"type": "Feature", "properties": {"osm_id": 341049679, "status": "unaffected", "confidence": "high", "flooded_fraction": 0.0, "name": null, "highway": "path", "structure": "road_bridge", "buffer_m": 15.0, "mean_probability": 0.0, "length_km": 0.110899}, "geometry": {"type": "LineString", "coordinates": [[85.1850809, 27.9724338], [85.1839585, 27.9725259]]}}, {"type": "Feature", "properties": {"osm_id": 340641821, "status": "possibly_impacted", "confidence": "high", "flooded_fraction": 0.875, "name": null, "highway": "path", "structure": "road_bridge", "buffer_m": 15.0, "mean_probability": 0.7832, "length_km": 0.028839}, "geometry": {"type": "LineString", "coordinates": [[85.2834721, 27.9055676], [85.2834799, 27.9055471], [85.2833429, 27.9054446], [85.2833031, 27.9053734]]}}, {"type": "Feature", "properties": {"osm_id": 886471593, "status": "unaffected", "confidence": "high", "flooded_fraction": 0.0, "name": null, "highway": "unclassified", "structure": "road_bridge", "buffer_m": 15.0, "mean_probability": 0.0, "length_km": 0.028141}, "geometry": {"type": "LineString", "coordinates": [[85.1994466, 27.9866447], [85.1996586, 27.9864742]]}}, {"type": "Feature", "properties": {"osm_id": 1039520717, "status": "unaffected", "confidence": "high", "flooded_fraction": 0.0, "name": null, "highway": "path", "structure": "road_bridge", "buffer_m": 15.0, "mean_probability": 0.0, "length_km": 0.055025}, "geometry": {"type": "LineString", "coordinates": [[85.3058727, 27.955482], [85.3062791, 27.9551409]]}}, {"type": "Feature", "properties": {"osm_id": 341174340, "status": "unaffected", "confidence": "high", "flooded_fraction": 0.0, "name": null, "highway": "unclassified", "structure": "road_bridge", "buffer_m": 15.0, "mean_probability": 0.0, "length_km": 0.014709}, "geometry": {"type": "LineString", "coordinates": [[85.1636281, 27.9563409], [85.1634916, 27.9562868]]}}, {"type": "Feature", "properties": {"osm_id": 890909605, "status": "possibly_impacted", "confidence": "high", "flooded_fraction": 0.5, "name": null, "highway": "path", "structure": "road_bridge", "buffer_m": 15.0, "mean_probability": 0.4806, "length_km": 0.026225}, "geometry": {"type": "LineString", "coordinates": [[85.3485648, 27.9737832], [85.3482983, 27.9737777]]}}, {"type": "Feature", "properties": {"osm_id": 303977029, "status": "unaffected", "confidence": "high", "flooded_fraction": 0.0, "name": "Budisera ko Pul", "highway": "secondary", "structure": "road_bridge", "buffer_m": 15.0, "mean_probability": 0.0, "length_km": 0.03654}, "geometry": {"type": "LineString", "coordinates": [[85.3188784, 27.8591159], [85.3188197, 27.8594415]]}}, {"type": "Feature", "properties": {"osm_id": 281810148, "status": "unaffected", "confidence": "high", "flooded_fraction": 0.0, "name": "Tupche Aama ko pool", "highway": "path", "structure": "road_bridge", "buffer_m": 15.0, "mean_probability": 0.0, "length_km": 0.064957}, "geometry": {"type": "LineString", "coordinates": [[85.1732285, 27.9641981], [85.173644, 27.9637426]]}}, {"type": "Feature", "properties": {"osm_id": 343553908, "status": "possibly_impacted", "confidence": "high", "flooded_fraction": 1.0, "name": null, "highway": "track", "structure": "road_bridge", "buffer_m": 15.0, "mean_probability": 0.9728, "length_km": 0.01008}, "geometry": {"type": "LineString", "coordinates": [[85.1584489, 27.9443716], [85.1583805, 27.9444393]]}}, {"type": "Feature", "properties": {"osm_id": 345313942, "status": "possibly_impacted", "confidence": "medium", "flooded_fraction": 0.3333, "name": "Pasang Lhamu Highway", "highway": "primary", "structure": "road_bridge", "buffer_m": 15.0, "mean_probability": 0.1862, "length_km": 0.025385}, "geometry": {"type": "LineString", "coordinates": [[85.1847908, 27.9703121], [85.1848611, 27.9705325]]}}, {"type": "Feature", "properties": {"osm_id": 340571803, "status": "possibly_impacted", "confidence": "high", "flooded_fraction": 1.0, "name": "Kharanitar-Satbishe Road", "highway": "secondary", "structure": "road_bridge", "buffer_m": 15.0, "mean_probability": 0.7046, "length_km": 0.0402}, "geometry": {"type": "LineString", "coordinates": [[85.3044527, 27.9273763], [85.304858, 27.9274212]]}}, {"type": "Feature", "properties": {"osm_id": 344083441, "status": "unaffected", "confidence": "high", "flooded_fraction": 0.0, "name": null, "highway": "unclassified", "structure": "road_bridge", "buffer_m": 15.0, "mean_probability": 0.0, "length_km": 0.009348}, "geometry": {"type": "LineString", "coordinates": [[85.244622, 28.0029026], [85.2445452, 28.0028529]]}}, {"type": "Feature", "properties": {"osm_id": 340540971, "status": "unaffected", "confidence": "high", "flooded_fraction": 0.0, "name": null, "highway": "footway", "structure": "road_bridge", "buffer_m": 15.0, "mean_probability": 0.0, "length_km": 0.035488}, "geometry": {"type": "LineString", "coordinates": [[85.3055702, 28.0060664], [85.3054468, 28.0059301], [85.3053385, 28.005821]]}}, {"type": "Feature", "properties": {"osm_id": 343296363, "status": "unaffected", "confidence": "high", "flooded_fraction": 0.0, "name": null, "highway": "path", "structure": "road_bridge", "buffer_m": 15.0, "mean_probability": 0.0, "length_km": 0.008606}, "geometry": {"type": "LineString", "coordinates": [[85.1865265, 27.9711865], [85.1866043, 27.971151]]}}, {"type": "Feature", "properties": {"osm_id": 891166380, "status": "unaffected", "confidence": "high", "flooded_fraction": 0.0, "name": "Naya Pul Bridge", "highway": "path", "structure": "road_bridge", "buffer_m": 15.0, "mean_probability": 0.0, "length_km": 0.113469}, "geometry": {"type": "LineString", "coordinates": [[85.2680554, 27.9137119], [85.2689069, 27.9130217]]}}, {"type": "Feature", "properties": {"osm_id": 924500984, "status": "unaffected", "confidence": "high", "flooded_fraction": 0.0, "name": null, "highway": "path", "structure": "road_bridge", "buffer_m": 15.0, "mean_probability": 0.0, "length_km": 0.079741}, "geometry": {"type": "LineString", "coordinates": [[85.2689508, 28.0283195], [85.2697568, 28.0283988]]}}, {"type": "Feature", "properties": {"osm_id": 341028060, "status": "unaffected", "confidence": "high", "flooded_fraction": 0.0, "name": null, "highway": "path", "structure": "road_bridge", "buffer_m": 15.0, "mean_probability": 0.0, "length_km": 0.073091}, "geometry": {"type": "LineString", "coordinates": [[85.2834932, 28.0010617], [85.2837603, 28.0016772]]}}, {"type": "Feature", "properties": {"osm_id": 342123061, "status": "unaffected", "confidence": "high", "flooded_fraction": 0.0, "name": null, "highway": "unclassified", "structure": "road_bridge", "buffer_m": 15.0, "mean_probability": 0.0, "length_km": 0.086312}, "geometry": {"type": "LineString", "coordinates": [[85.2320472, 27.8953365], [85.2323547, 27.8960659]]}}, {"type": "Feature", "properties": {"osm_id": 343260984, "status": "unaffected", "confidence": "high", "flooded_fraction": 0.0, "name": null, "highway": "path", "structure": "road_bridge", "buffer_m": 15.0, "mean_probability": 0.0, "length_km": 0.099776}, "geometry": {"type": "LineString", "coordinates": [[85.2009205, 27.9419145], [85.2015428, 27.9412037]]}}, {"type": "Feature", "properties": {"osm_id": 886471590, "status": "unaffected", "confidence": "high", "flooded_fraction": 0.0, "name": null, "highway": "path", "structure": "road_bridge", "buffer_m": 15.0, "mean_probability": 0.0, "length_km": 0.017868}, "geometry": {"type": "LineString", "coordinates": [[85.1859457, 28.0044069], [85.1860745, 28.0042932]]}}, {"type": "Feature", "properties": {"osm_id": 887084583, "status": "possibly_impacted", "confidence": "low", "flooded_fraction": 0.25, "name": null, "highway": "path", "structure": "road_bridge", "buffer_m": 15.0, "mean_probability": 0.1405, "length_km": 0.049783}, "geometry": {"type": "LineString", "coordinates": [[85.191256, 27.9012339], [85.1911927, 27.9007882]]}}, {"type": "Feature", "properties": {"osm_id": 1218958043, "status": "possibly_impacted", "confidence": "high", "flooded_fraction": 0.5, "name": "Sahare Jholunge Pul", "highway": "path", "structure": "road_bridge", "buffer_m": 15.0, "mean_probability": 0.3955, "length_km": 0.313763}, "geometry": {"type": "LineString", "coordinates": [[85.2857774, 27.9165162], [85.2843257, 27.919037]]}}, {"type": "Feature", "properties": {"osm_id": 246173465, "status": "unaffected", "confidence": "low", "flooded_fraction": 0.0417, "name": "Aqueduct (2 Barrel) crossing over Trishuli", "highway": null, "structure": "other_bridge", "buffer_m": 15.0, "mean_probability": 0.0219, "length_km": 0.077607}, "geometry": {"type": "LineString", "coordinates": [[85.1632259, 27.9486307], [85.1624539, 27.9484877]]}}, {"type": "Feature", "properties": {"osm_id": 341028061, "status": "possibly_impacted", "confidence": "high", "flooded_fraction": 1.0, "name": null, "highway": "path", "structure": "road_bridge", "buffer_m": 15.0, "mean_probability": 0.935, "length_km": 0.070547}, "geometry": {"type": "LineString", "coordinates": [[85.2664011, 28.001225], [85.2670986, 28.0013734]]}}, {"type": "Feature", "properties": {"osm_id": 341170660, "status": "unaffected", "confidence": "high", "flooded_fraction": 0.0, "name": null, "highway": "unclassified", "structure": "road_bridge", "buffer_m": 15.0, "mean_probability": 0.0, "length_km": 0.088642}, "geometry": {"type": "LineString", "coordinates": [[85.163916, 27.9553824], [85.1638121, 27.9555995], [85.1635697, 27.9561208]]}}]}